[{"OBJECT_NAME":"STARLINK-34982","OBJECT_ID":"2025-179J","EPOCH":"2026-03-09T16:14:18.215808","MEAN_MOTION":15.05649934,"ECCENTRICITY":6.969e-5,"INCLINATION":97.603,"RA_OF_ASC_NODE":112.909,"ARG_OF_PERICENTER":117.7147,"MEAN_ANOMALY":242.4151,"EPHEMERIS_TYPE":0,"CLASSIFICATION_TYPE":"U","NORAD_CAT_ID":65243,"ELEMENT_SET_NO":999,"REV_AT_EPOCH":3197,"BSTAR":0.00016155937,"MEAN_MOTION_DOT":2.271e-5,"MEAN_MOTION_DDOT":0},{"OBJECT_NAME":"OBJECT M","OBJECT_ID":"2017-042M","EPOCH":"2026-03-09T22:38:39.337440","MEAN_MOTION":15.07991931,"ECCENTRICITY":0.0005117,"INCLINATION":97.4139,"RA_OF_ASC_NODE":234.2602,"ARG_OF_PERICENTER":83.1417,"MEAN_ANOMALY":277.0393,"EPHEMERIS_TYPE":0,"CLASSIFICATION_TYPE":"U","NORAD_CAT_ID":42836,"ELEMENT_SET_NO":999,"REV_AT_EPOCH":47205,"BSTAR":0.00047182615,"MEAN_MOTION_DOT":7.201e-5,"MEAN_MOTION_DDOT":0}]
